STARLINK-5814           
1 55777U 23028AN  26068.80703991 -.00002994  00000+0 -24330-3 0  9995
2 55777  69.9999 224.0382 0003169 271.9148  88.1648 14.98320558166559
LEMUR-2-ARIANNA         
1 62699U 25009CU  26068.74082662  .00009084  00000+0  71790-3 0  9992
2 62699  97.6996 151.0445 0004640 147.3928 212.7583 15.00881954 62634
