[{"OBJECT_NAME":"STARLINK-5814","OBJECT_ID":"2023-028AN","EPOCH":"2026-03-09T19:22:08.249088","MEAN_MOTION":14.98320558,"ECCENTRICITY":0.00031689,"INCLINATION":69.9999,"RA_OF_ASC_NODE":224.0382,"ARG_OF_PERICENTER":271.9148,"MEAN_ANOMALY":88.1648,"EPHEMERIS_TYPE":0,"CLASSIFICATION_TYPE":"U","NORAD_CAT_ID":55777,"ELEMENT_SET_NO":999,"REV_AT_EPOCH":16655,"BSTAR":-0.00024330093,"MEAN_MOTION_DOT":-2.994e-5,"MEAN_MOTION_DDOT":0},{"OBJECT_NAME":"LEMUR-2-ARIANNA","OBJECT_ID":"2025-009CU","EPOCH":"2026-03-09T17:46:47.419968","MEAN_MOTION":15.00881954,"ECCENTRICITY":0.00046401,"INCLINATION":97.6996,"RA_OF_ASC_NODE":151.0445,"ARG_OF_PERICENTER":147.3928,"MEAN_ANOMALY":212.7583,"EPHEMERIS_TYPE":0,"CLASSIFICATION_TYPE":"U","NORAD_CAT_ID":62699,"ELEMENT_SET_NO":999,"REV_AT_EPOCH":6263,"BSTAR":0.00071790312,"MEAN_MOTION_DOT":9.084e-5,"MEAN_MOTION_DDOT":0}]
